[{"OBJECT_NAME":"KUIPER-00113","OBJECT_ID":"2025-228B","EPOCH":"2026-03-09T22:29:23.137440","MEAN_MOTION":14.79886464,"ECCENTRICITY":5.385e-5,"INCLINATION":51.8999,"RA_OF_ASC_NODE":354.4999,"ARG_OF_PERICENTER":69.622,"MEAN_ANOMALY":290.48,"EPHEMERIS_TYPE":0,"CLASSIFICATION_TYPE":"U","NORAD_CAT_ID":65948,"ELEMENT_SET_NO":999,"REV_AT_EPOCH":2333,"BSTAR":-5.789971e-6,"MEAN_MOTION_DOT":-2.65e-6,"MEAN_MOTION_DDOT":0},{"OBJECT_NAME":"CZ-6A DEB","OBJECT_ID":"2022-151DT","EPOCH":"2026-03-09T07:22:53.639328","MEAN_MOTION":14.53435097,"ECCENTRICITY":0.0120552,"INCLINATION":98.4747,"RA_OF_ASC_NODE":97.3653,"ARG_OF_PERICENTER":236.7688,"MEAN_ANOMALY":122.1907,"EPHEMERIS_TYPE":0,"CLASSIFICATION_TYPE":"U","NORAD_CAT_ID":54395,"ELEMENT_SET_NO":999,"REV_AT_EPOCH":17505,"BSTAR":0.00077126473,"MEAN_MOTION_DOT":3.483e-5,"MEAN_MOTION_DDOT":0}]
